{"type": "FeatureCollection", "features": [{"type": "Feature", "properties": {"norad_id": 32275, "name": "COSMOS 2433 (720)", "group": "glo-ops", "lat": -33.081218673834414, "lon": 159.19127235480138, "alt_km": 19123.06079356973, "timestamp": "2025-12-16T15:45:51.306749+00:00", "meta": {"OBJECT_NAME": "COSMOS 2433 (720)", "OBJECT_ID": "2007-052A", "EPOCH": "2025-12-14T23:11:38.718240", "MEAN_MOTION": 2.13103955, "ECCENTRICITY": 0.00054201, "INCLINATION": 65.6819, "RA_OF_ASC_NODE": 322.1305, "ARG_OF_PERICENTER": 253.5649, "MEAN_ANOMALY": 106.3736, "EPHEMERIS_TYPE": 0, "CLASSIFICATION_TYPE": "U", "NORAD_CAT_ID": 32275, "ELEMENT_SET_NO": 999, "REV_AT_EPOCH": 14113, "BSTAR": 0, "MEAN_MOTION_DOT": -6.5e-07, "MEAN_MOTION_DDOT": 0}, "tle": {"line1": "1 32275U 07052A   25348.96642035 -.00000065  00000+0  00000+0 0  9990", "line2": "2 32275  65.6819 322.1305 0005420 253.5649 106.3736  2.13103955141132"}}, "geometry": {"type": "Point", "coordinates": [159.19127235480138, -33.081218673834414]}}, {"type": "Feature", "properties": {"norad_id": 32276, "name": "COSMOS 2432 (719)", "group": "glo-ops", "lat": 17.04951746944744, "lon": 134.2209358719645, "alt_km": 19153.29517711265, "timestamp": "2025-12-16T15:45:51.306786+00:00", "meta": {"OBJECT_NAME": "COSMOS 2432 (719)", "OBJECT_ID": "2007-052B", "EPOCH": "2025-12-15T06:31:38.583840", "MEAN_MOTION": 2.13103103, "ECCENTRICITY": 0.00112605, "INCLINATION": 65.6973, "RA_OF_ASC_NODE": 322.2446, "ARG_OF_PERICENTER": 312.4858, "MEAN_ANOMALY": 226.3212, "EPHEMERIS_TYPE": 0, "CLASSIFICATION_TYPE": "U", "NORAD_CAT_ID": 32276, "ELEMENT_SET_NO": 999, "REV_AT_EPOCH": 14116, "BSTAR": 0, "MEAN_MOTION_DOT": -6.6e-07, "MEAN_MOTION_DDOT": 0}, "tle": {"line1": "1 32276U 07052B   25349.27197435 -.00000066  00000+0  00000+0 0  9996", "line2": "2 32276  65.6973 322.2446 0011260 312.4858 226.3212  2.13103103141167"}}, "geometry": {"type": "Point", "coordinates": [134.2209358719645, 17.04951746944744]}}, {"type": "Feature", "properties": {"norad_id": 32393, "name": "COSMOS 2434 (721)", "group": "glo-ops", "lat": 59.30475870888241, "lon": -36.09983905149398, "alt_km": 19114.251125271367, "timestamp": "2025-12-16T15:45:51.306802+00:00", "meta": {"OBJECT_NAME": "COSMOS 2434 (721)", "OBJECT_ID": "2007-065A", "EPOCH": "2025-12-15T08:26:38.759136", "MEAN_MOTION": 2.13101367, "ECCENTRICITY": 0.00044341, "INCLINATION": 64.3148, "RA_OF_ASC_NODE": 198.1152, "ARG_OF_PERICENTER": 71.4602, "MEAN_ANOMALY": 114.7825, "EPHEMERIS_TYPE": 0, "CLASSIFICATION_TYPE": "U", "NORAD_CAT_ID": 32393, "ELEMENT_SET_NO": 999, "REV_AT_EPOCH": 13985, "BSTAR": 0, "MEAN_MOTION_DOT": 1.05e-06, "MEAN_MOTION_DDOT": 0}, "tle": {"line1": "1 32393U 07065A   25349.35183749  .00000105  00000+0  00000+0 0  9995", "line2": "2 32393  64.3148 198.1152 0004434  71.4602 114.7825  2.13101367139858"}}, "geometry": {"type": "Point", "coordinates": [-36.09983905149398, 59.30475870888241]}}, {"type": "Feature", "properties": {"norad_id": 32395, "name": "COSMOS 2436 (723)", "group": "glo-ops", "lat": -51.48231139030296, "lon": 55.33704319252688, "alt_km": 19164.198844278155, "timestamp": "2025-12-16T15:45:51.306815+00:00", "meta": {"OBJECT_NAME": "COSMOS 2436 (723)", "OBJECT_ID": "2007-065C", "EPOCH": "2025-12-15T21:01:07.375584", "MEAN_MOTION": 2.13100032, "ECCENTRICITY": 0.00177255, "INCLINATION": 64.3235, "RA_OF_ASC_NODE": 198.1677, "ARG_OF_PERICENTER": 8.9323, "MEAN_ANOMALY": 352.3192, "EPHEMERIS_TYPE": 0, "CLASSIFICATION_TYPE": "U", "NORAD_CAT_ID": 32395, "ELEMENT_SET_NO": 999, "REV_AT_EPOCH": 13982, "BSTAR": 0, "MEAN_MOTION_DOT": 1.08e-06, "MEAN_MOTION_DDOT": 0}, "tle": {"line1": "1 32395U 07065C   25349.87577981  .00000108  00000+0  00000+0 0  9992", "line2": "2 32395  64.3235 198.1677 0017725   8.9323 352.3192  2.13100032139823"}}, "geometry": {"type": "Point", "coordinates": [55.33704319252688, -51.48231139030296]}}, {"type": "Feature", "properties": {"norad_id": 36111, "name": "COSMOS 2456 (730)", "group": "glo-ops", "lat": -64.36576015685911, "lon": -25.60681558032, "alt_km": 19129.752350724815, "timestamp": "2025-12-16T15:45:51.306827+00:00", "meta": {"OBJECT_NAME": "COSMOS 2456 (730)", "OBJECT_ID": "2009-070A", "EPOCH": "2025-12-14T09:56:44.941056", "MEAN_MOTION": 2.13103612, "ECCENTRICITY": 0.00031175, "INCLINATION": 64.9016, "RA_OF_ASC_NODE": 77.2804, "ARG_OF_PERICENTER": 298.1789, "MEAN_ANOMALY": 45.9889, "EPHEMERIS_TYPE": 0, "CLASSIFICATION_TYPE": "U", "NORAD_CAT_ID": 36111, "ELEMENT_SET_NO": 999, "REV_AT_EPOCH": 12448, "BSTAR": 0, "MEAN_MOTION_DOT": -5.7e-07, "MEAN_MOTION_DDOT": 0}, "tle": {"line1": "1 36111U 09070A   25348.41440904 -.00000057  00000+0  00000+0 0  9997", "line2": "2 36111  64.9016  77.2804 0003117 298.1789  45.9889  2.13103612124485"}}, "geometry": {"type": "Point", "coordinates": [-25.60681558032, -64.36576015685911]}}, {"type": "Feature", "properties": {"norad_id": 36112, "name": "COSMOS 2457 (733)", "group": "glo-ops", "lat": 30.02892653469694, "lon": 92.76098734132064, "alt_km": 19133.508682376607, "timestamp": "2025-12-16T15:45:51.306838+00:00", "meta": {"OBJECT_NAME": "COSMOS 2457 (733)", "OBJECT_ID": "2009-070B", "EPOCH": "2025-12-15T22:24:14.107104", "MEAN_MOTION": 2.13100894, "ECCENTRICITY": 0.00046417, "INCLINATION": 64.8877, "RA_OF_ASC_NODE": 77.076, "ARG_OF_PERICENTER": 159.3644, "MEAN_ANOMALY": 39.3126, "EPHEMERIS_TYPE": 0, "CLASSIFICATION_TYPE": "U", "NORAD_CAT_ID": 36112, "ELEMENT_SET_NO": 999, "REV_AT_EPOCH": 12452, "BSTAR": 0, "MEAN_MOTION_DOT": -5.8e-07, "MEAN_MOTION_DDOT": 0}, "tle": {"line1": "1 36112U 09070B   25349.93349661 -.00000058  00000+0  00000+0 0  9995", "line2": "2 36112  64.8877  77.0760 0004641 159.3644  39.3126  2.13100894124525"}}, "geometry": {"type": "Point", "coordinates": [92.76098734132064, 30.02892653469694]}}, {"type": "Feature", "properties": {"norad_id": 36402, "name": "COSMOS 2460 (732)", "group": "glo-ops", "lat": 29.872607287771057, "lon": -24.210092220526395, "alt_km": 19129.370867939473, "timestamp": "2025-12-16T15:45:51.306850+00:00", "meta": {"OBJECT_NAME": "COSMOS 2460 (732)", "OBJECT_ID": "2010-007C", "EPOCH": "2025-12-15T05:47:00.728160", "MEAN_MOTION": 2.13106127, "ECCENTRICITY": 0.00026664, "INCLINATION": 65.5278, "RA_OF_ASC_NODE": 320.6882, "ARG_OF_PERICENTER": 275.3459, "MEAN_ANOMALY": 111.58, "EPHEMERIS_TYPE": 0, "CLASSIFICATION_TYPE": "U", "NORAD_CAT_ID": 36402, "ELEMENT_SET_NO": 999, "REV_AT_EPOCH": 12281, "BSTAR": 0, "MEAN_MOTION_DOT": -6.7e-07, "MEAN_MOTION_DDOT": 0}, "tle": {"line1": "1 36402U 10007C   25349.24098065 -.00000067  00000+0  00000+0 0  9992", "line2": "2 36402  65.5278 320.6882 0002666 275.3459 111.5800  2.13106127122817"}}, "geometry": {"type": "Point", "coordinates": [-24.210092220526395, 29.872607287771057]}}, {"type": "Feature", "properties": {"norad_id": 37867, "name": "COSMOS 2476 (744)", "group": "glo-ops", "lat": 6.712910024969063, "lon": -104.07379130979125, "alt_km": 19100.371898956837, "timestamp": "2025-12-16T15:45:51.306861+00:00", "meta": {"OBJECT_NAME": "COSMOS 2476 (744)", "OBJECT_ID": "2011-064A", "EPOCH": "2025-12-16T10:28:18.881760", "MEAN_MOTION": 2.13101449, "ECCENTRICITY": 0.002435, "INCLINATION": 65.164, "RA_OF_ASC_NODE": 79.0464, "ARG_OF_PERICENTER": 234.7014, "MEAN_ANOMALY": 128.9307, "EPHEMERIS_TYPE": 0, "CLASSIFICATION_TYPE": "U", "NORAD_CAT_ID": 37867, "ELEMENT_SET_NO": 999, "REV_AT_EPOCH": 10987, "BSTAR": 0, "MEAN_MOTION_DOT": -5.4e-07, "MEAN_MOTION_DDOT": 0}, "tle": {"line1": "1 37867U 11064A   25350.43632965 -.00000054  00000+0  00000+0 0  9994", "line2": "2 37867  65.1640  79.0464 0024350 234.7014 128.9307  2.13101449109870"}}, "geometry": {"type": "Point", "coordinates": [-104.07379130979125, 6.712910024969063]}}, {"type": "Feature", "properties": {"norad_id": 37868, "name": "COSMOS 2477 (745)", "group": "glo-ops", "lat": -5.488639988692769, "lon": 76.57757059499188, "alt_km": 19157.554583737423, "timestamp": "2025-12-16T15:45:51.306872+00:00", "meta": {"OBJECT_NAME": "COSMOS 2477 (745)", "OBJECT_ID": "2011-064B", "EPOCH": "2025-12-15T06:06:12.573216", "MEAN_MOTION": 2.1310289, "ECCENTRICITY": 0.00211455, "INCLINATION": 65.1707, "RA_OF_ASC_NODE": 79.1637, "ARG_OF_PERICENTER": 234.5873, "MEAN_ANOMALY": 123.1925, "EPHEMERIS_TYPE": 0, "CLASSIFICATION_TYPE": "U", "NORAD_CAT_ID": 37868, "ELEMENT_SET_NO": 999, "REV_AT_EPOCH": 10983, "BSTAR": 0, "MEAN_MOTION_DOT": -5.6e-07, "MEAN_MOTION_DDOT": 0}, "tle": {"line1": "1 37868U 11064B   25349.25431219 -.00000056  00000+0  00000+0 0  9994", "line2": "2 37868  65.1707  79.1637 0021145 234.5873 123.1925  2.13102890109838"}}, "geometry": {"type": "Point", "coordinates": [76.57757059499188, -5.488639988692769]}}, {"type": "Feature", "properties": {"norad_id": 37869, "name": "COSMOS 2475 (743)", "group": "glo-ops", "lat": -44.1058909651605, "lon": 52.53738227786053, "alt_km": 19102.964580674627, "timestamp": "2025-12-16T15:45:51.306883+00:00", "meta": {"OBJECT_NAME": "COSMOS 2475 (743)", "OBJECT_ID": "2011-064C", "EPOCH": "2025-12-15T18:53:44.988864", "MEAN_MOTION": 2.13101578, "ECCENTRICITY": 0.00263291, "INCLINATION": 65.178, "RA_OF_ASC_NODE": 79.1657, "ARG_OF_PERICENTER": 248.6854, "MEAN_ANOMALY": 113.9368, "EPHEMERIS_TYPE": 0, "CLASSIFICATION_TYPE": "U", "NORAD_CAT_ID": 37869, "ELEMENT_SET_NO": 999, "REV_AT_EPOCH": 10986, "BSTAR": 0, "MEAN_MOTION_DOT": -5.6e-07, "MEAN_MOTION_DDOT": 0}, "tle": {"line1": "1 37869U 11064C   25349.78732626 -.00000056  00000+0  00000+0 0  9999", "line2": "2 37869  65.1780  79.1657 0026329 248.6854 113.9368  2.13101578109869"}}, "geometry": {"type": "Point", "coordinates": [52.53738227786053, -44.1058909651605]}}]}